NOAA 1                  
1 04793U 70106A   26095.04704449 -.00000035  00000+0  47759-4 0  9995
2 04793 101.3456 132.9598 0032059 129.6382 259.7060 12.54049759531523
NOAA 2 (ITOS-D)         
1 06235U 72082A   26095.30813359 -.00000033  00000+0  85097-4 0  9998
2 06235 102.0139 113.0676 0003725 312.3984  58.7409 12.53212787445829
NOAA 3                  
1 06920U 73086A   26095.03587131 -.00000039  00000+0  53723-4 0  9997
2 06920 102.2889 108.2710 0006187 258.6515 121.9308 12.40392542372831
NOAA 4                  
1 07529U 74089A   26095.28804272 -.00000044  00000+0  12591-4 0  9996
2 07529 102.0059 107.3048 0008831 338.2433  33.0939 12.53202290350394
NOAA 5                  
1 09057U 76077A   26095.25691340 -.00000040  00000+0  44171-4 0  9995
2 09057 102.2992  80.9078 0010095 112.3111 257.9796 12.37829286245458
TIROS N                 
1 11060U 78096A   26095.31775291  .00000236  00000+0  13175-3 0  9995
2 11060  98.4598 119.6527 0011644  94.0086 266.2422 14.19351080668418
NOAA 6                  
1 11416U 79057A   26095.31826999  .00000421  00000+0  16161-3 0  9994
2 11416  98.5708 125.3058 0010994 112.3197 247.9155 14.35454954440503
NOAA 7                  
1 12553U 81059A   26095.12591225  .00000071  00000+0  56247-4 0  9993
2 12553  98.8008 162.9461 0012460 115.5146 244.7319 14.17779110314394
NOAA 8                  
1 13923U 83022A   26095.00720003  .00000192  00000+0  92063-4 0  9992
2 13923  98.7359 107.8912 0015852 111.3299 248.9577 14.29777776240618
NOAA 9                  
1 15427U 84123A   26095.32608638  .00000158  00000+0  10164-3 0  9993
2 15427  99.1062 120.2536 0014467 192.3934 178.3710 14.17048377133107
NOAA 10                 
1 16969U 86073A   26095.20806856  .00000193  00000+0  93680-4 0  9994
2 16969  98.7025  88.5531 0011508 204.9012 164.7749 14.29155531 58992
NOAA 11                 
1 19531U 88089A   26095.28782482  .00000090  00000+0  67465-4 0  9995
2 19531  98.6139  43.4381 0011641 142.7734 217.4250 14.15827113937161
NOAA 12                 
1 21263U 91032A   26095.26281724  .00000160  00000+0  84085-4 0  9998
2 21263  98.6181  84.8557 0012616 239.2155 120.7784 14.26726625814563
NOAA 13                 
1 22739U 93050A   26095.26259399  .00000173  00000+0  11424-3 0  9992
2 22739  98.6976  42.2749 0009197 344.6763  15.4131 14.13645759683071
NOAA 14                 
1 23455U 94089A   26095.20515108  .00000094  00000+0  70629-4 0  9993
2 23455  98.5067  68.1685 0008434 297.1247  62.9067 14.14661640612889
NOAA 15                 
1 25338U 98030A   26095.27088518  .00000216  00000+0  10598-3 0  9996
2 25338  98.5131 117.8548 0009939 194.6595 165.4299 14.27123918450893
NOAA 16                 
1 26536U 00055A   26095.20619148  .00000132  00000+0  91195-4 0  9999
2 26536  98.4679 113.3249 0011076 145.7228 214.4663 14.13906095613413
