[{"OBJECT_NAME":"NOAA 1","OBJECT_ID":"1970-106A","EPOCH":"2026-04-05T01:07:44.643936","MEAN_MOTION":12.54049759,"ECCENTRICITY":0.00320599,"INCLINATION":101.3456,"RA_OF_ASC_NODE":132.9598,"ARG_OF_PERICENTER":129.6382,"MEAN_ANOMALY":259.706,"EPHEMERIS_TYPE":0,"CLASSIFICATION_TYPE":"U","NORAD_CAT_ID":4793,"ELEMENT_SET_NO":999,"REV_AT_EPOCH":53152,"BSTAR":4.7758801e-5,"MEAN_MOTION_DOT":-3.5e-7,"MEAN_MOTION_DDOT":0},{"OBJECT_NAME":"NOAA 2 (ITOS-D)","OBJECT_ID":"1972-082A","EPOCH":"2026-04-05T07:23:42.742176","MEAN_MOTION":12.53212787,"ECCENTRICITY":0.00037259,"INCLINATION":102.0139,"RA_OF_ASC_NODE":113.0676,"ARG_OF_PERICENTER":312.3984,"MEAN_ANOMALY":58.7409,"EPHEMERIS_TYPE":0,"CLASSIFICATION_TYPE":"U","NORAD_CAT_ID":6235,"ELEMENT_SET_NO":999,"REV_AT_EPOCH":44582,"BSTAR":8.5096673e-5,"MEAN_MOTION_DOT":-3.3e-7,"MEAN_MOTION_DDOT":0},{"OBJECT_NAME":"NOAA 3","OBJECT_ID":"1973-086A","EPOCH":"2026-04-05T00:51:39.281184","MEAN_MOTION":12.40392542,"ECCENTRICITY":0.00061872,"INCLINATION":102.2889,"RA_OF_ASC_NODE":108.271,"ARG_OF_PERICENTER":258.6515,"MEAN_ANOMALY":121.9308,"EPHEMERIS_TYPE":0,"CLASSIFICATION_TYPE":"U","NORAD_CAT_ID":6920,"ELEMENT_SET_NO":999,"REV_AT_EPOCH":37283,"BSTAR":5.3722721e-5,"MEAN_MOTION_DOT":-3.9e-7,"MEAN_MOTION_DDOT":0},{"OBJECT_NAME":"NOAA 4","OBJECT_ID":"1974-089A","EPOCH":"2026-04-05T06:54:46.891008","MEAN_MOTION":12.5320229,"ECCENTRICITY":0.00088316,"INCLINATION":102.0059,"RA_OF_ASC_NODE":107.3048,"ARG_OF_PERICENTER":338.2433,"MEAN_ANOMALY":33.0939,"EPHEMERIS_TYPE":0,"CLASSIFICATION_TYPE":"U","NORAD_CAT_ID":7529,"ELEMENT_SET_NO":999,"REV_AT_EPOCH":35039,"BSTAR":1.2591216e-5,"MEAN_MOTION_DOT":-4.4e-7,"MEAN_MOTION_DDOT":0},{"OBJECT_NAME":"NOAA 5","OBJECT_ID":"1976-077A","EPOCH":"2026-04-05T06:09:57.317760","MEAN_MOTION":12.37829286,"ECCENTRICITY":0.00100955,"INCLINATION":102.2992,"RA_OF_ASC_NODE":80.9078,"ARG_OF_PERICENTER":112.3111,"MEAN_ANOMALY":257.9796,"EPHEMERIS_TYPE":0,"CLASSIFICATION_TYPE":"U","NORAD_CAT_ID":9057,"ELEMENT_SET_NO":999,"REV_AT_EPOCH":24545,"BSTAR":4.4170715e-5,"MEAN_MOTION_DOT":-4.0e-7,"MEAN_MOTION_DDOT":0},{"OBJECT_NAME":"TIROS N","OBJECT_ID":"1978-096A","EPOCH":"2026-04-05T07:37:33.851424","MEAN_MOTION":14.1935108,"ECCENTRICITY":0.00116445,"INCLINATION":98.4598,"RA_OF_ASC_NODE":119.6527,"ARG_OF_PERICENTER":94.0086,"MEAN_ANOMALY":266.2422,"EPHEMERIS_TYPE":0,"CLASSIFICATION_TYPE":"U","NORAD_CAT_ID":11060,"ELEMENT_SET_NO":999,"REV_AT_EPOCH":66841,"BSTAR":0.00013175367,"MEAN_MOTION_DOT":2.36e-6,"MEAN_MOTION_DDOT":0},{"OBJECT_NAME":"NOAA 6","OBJECT_ID":"1979-057A","EPOCH":"2026-04-05T07:38:18.527136","MEAN_MOTION":14.35454954,"ECCENTRICITY":0.00109945,"INCLINATION":98.5708,"RA_OF_ASC_NODE":125.3058,"ARG_OF_PERICENTER":112.3197,"MEAN_ANOMALY":247.9155,"EPHEMERIS_TYPE":0,"CLASSIFICATION_TYPE":"U","NORAD_CAT_ID":11416,"ELEMENT_SET_NO":999,"REV_AT_EPOCH":44050,"BSTAR":0.00016160889,"MEAN_MOTION_DOT":4.21e-6,"MEAN_MOTION_DDOT":0},{"OBJECT_NAME":"NOAA 7","OBJECT_ID":"1981-059A","EPOCH":"2026-04-05T03:01:18.818400","MEAN_MOTION":14.1777911,"ECCENTRICITY":0.00124606,"INCLINATION":98.8008,"RA_OF_ASC_NODE":162.9461,"ARG_OF_PERICENTER":115.5146,"MEAN_ANOMALY":244.7319,"EPHEMERIS_TYPE":0,"CLASSIFICATION_TYPE":"U","NORAD_CAT_ID":12553,"ELEMENT_SET_NO":999,"REV_AT_EPOCH":31439,"BSTAR":5.6246735e-5,"MEAN_MOTION_DOT":7.1e-7,"MEAN_MOTION_DDOT":0},{"OBJECT_NAME":"NOAA 8","OBJECT_ID":"1983-022A","EPOCH":"2026-04-05T00:10:22.082592","MEAN_MOTION":14.29777776,"ECCENTRICITY":0.00158523,"INCLINATION":98.7359,"RA_OF_ASC_NODE":107.8912,"ARG_OF_PERICENTER":111.3299,"MEAN_ANOMALY":248.9577,"EPHEMERIS_TYPE":0,"CLASSIFICATION_TYPE":"U","NORAD_CAT_ID":13923,"ELEMENT_SET_NO":999,"REV_AT_EPOCH":24061,"BSTAR":9.206295e-5,"MEAN_MOTION_DOT":1.92e-6,"MEAN_MOTION_DDOT":0},{"OBJECT_NAME":"NOAA 9","OBJECT_ID":"1984-123A","EPOCH":"2026-04-05T07:49:33.863232","MEAN_MOTION":14.17048377,"ECCENTRICITY":0.00144679,"INCLINATION":99.1062,"RA_OF_ASC_NODE":120.2536,"ARG_OF_PERICENTER":192.3934,"MEAN_ANOMALY":178.371,"EPHEMERIS_TYPE":0,"CLASSIFICATION_TYPE":"U","NORAD_CAT_ID":15427,"ELEMENT_SET_NO":999,"REV_AT_EPOCH":13310,"BSTAR":0.0001016358,"MEAN_MOTION_DOT":1.58e-6,"MEAN_MOTION_DDOT":0},{"OBJECT_NAME":"NOAA 10","OBJECT_ID":"1986-073A","EPOCH":"2026-04-05T04:59:37.123584","MEAN_MOTION":14.29155531,"ECCENTRICITY":0.0011508,"INCLINATION":98.7025,"RA_OF_ASC_NODE":88.5531,"ARG_OF_PERICENTER":204.9012,"MEAN_ANOMALY":164.7749,"EPHEMERIS_TYPE":0,"CLASSIFICATION_TYPE":"U","NORAD_CAT_ID":16969,"ELEMENT_SET_NO":999,"REV_AT_EPOCH":5899,"BSTAR":9.3680331e-5,"MEAN_MOTION_DOT":1.93e-6,"MEAN_MOTION_DDOT":0},{"OBJECT_NAME":"NOAA 11","OBJECT_ID":"1988-089A","EPOCH":"2026-04-05T06:54:28.064448","MEAN_MOTION":14.15827113,"ECCENTRICITY":0.0011641,"INCLINATION":98.6139,"RA_OF_ASC_NODE":43.4381,"ARG_OF_PERICENTER":142.7734,"MEAN_ANOMALY":217.425,"EPHEMERIS_TYPE":0,"CLASSIFICATION_TYPE":"U","NORAD_CAT_ID":19531,"ELEMENT_SET_NO":999,"REV_AT_EPOCH":93716,"BSTAR":6.7464943e-5,"MEAN_MOTION_DOT":9.0e-7,"MEAN_MOTION_DDOT":0},{"OBJECT_NAME":"NOAA 12","OBJECT_ID":"1991-032A","EPOCH":"2026-04-05T06:18:27.409536","MEAN_MOTION":14.26726625,"ECCENTRICITY":0.00126162,"INCLINATION":98.6181,"RA_OF_ASC_NODE":84.8557,"ARG_OF_PERICENTER":239.2155,"MEAN_ANOMALY":120.7784,"EPHEMERIS_TYPE":0,"CLASSIFICATION_TYPE":"U","NORAD_CAT_ID":21263,"ELEMENT_SET_NO":999,"REV_AT_EPOCH":81456,"BSTAR":8.4084847e-5,"MEAN_MOTION_DOT":1.6e-6,"MEAN_MOTION_DDOT":0},{"OBJECT_NAME":"NOAA 13","OBJECT_ID":"1993-050A","EPOCH":"2026-04-05T06:18:08.120736","MEAN_MOTION":14.13645759,"ECCENTRICITY":0.00091975,"INCLINATION":98.6976,"RA_OF_ASC_NODE":42.2749,"ARG_OF_PERICENTER":344.6763,"MEAN_ANOMALY":15.4131,"EPHEMERIS_TYPE":0,"CLASSIFICATION_TYPE":"U","NORAD_CAT_ID":22739,"ELEMENT_SET_NO":999,"REV_AT_EPOCH":68307,"BSTAR":0.00011424376,"MEAN_MOTION_DOT":1.73e-6,"MEAN_MOTION_DDOT":0},{"OBJECT_NAME":"NOAA 14","OBJECT_ID":"1994-089A","EPOCH":"2026-04-05T04:55:25.053312","MEAN_MOTION":14.1466164,"ECCENTRICITY":0.00084342,"INCLINATION":98.5067,"RA_OF_ASC_NODE":68.1685,"ARG_OF_PERICENTER":297.1247,"MEAN_ANOMALY":62.9067,"EPHEMERIS_TYPE":0,"CLASSIFICATION_TYPE":"U","NORAD_CAT_ID":23455,"ELEMENT_SET_NO":999,"REV_AT_EPOCH":61288,"BSTAR":7.0628645e-5,"MEAN_MOTION_DOT":9.4e-7,"MEAN_MOTION_DDOT":0},{"OBJECT_NAME":"NOAA 15","OBJECT_ID":"1998-030A","EPOCH":"2026-04-05T06:30:04.479552","MEAN_MOTION":14.27123918,"ECCENTRICITY":0.00099398,"INCLINATION":98.5131,"RA_OF_ASC_NODE":117.8548,"ARG_OF_PERICENTER":194.6595,"MEAN_ANOMALY":165.4299,"EPHEMERIS_TYPE":0,"CLASSIFICATION_TYPE":"U","NORAD_CAT_ID":25338,"ELEMENT_SET_NO":999,"REV_AT_EPOCH":45089,"BSTAR":0.00010597522,"MEAN_MOTION_DOT":2.16e-6,"MEAN_MOTION_DDOT":0},{"OBJECT_NAME":"NOAA 16","OBJECT_ID":"2000-055A","EPOCH":"2026-04-05T04:56:54.943872","MEAN_MOTION":14.13906095,"ECCENTRICITY":0.00110761,"INCLINATION":98.4679,"RA_OF_ASC_NODE":113.3249,"ARG_OF_PERICENTER":145.7228,"MEAN_ANOMALY":214.4663,"EPHEMERIS_TYPE":0,"CLASSIFICATION_TYPE":"U","NORAD_CAT_ID":26536,"ELEMENT_SET_NO":999,"REV_AT_EPOCH":61341,"BSTAR":9.1195259e-5,"MEAN_MOTION_DOT":1.32e-6,"MEAN_MOTION_DDOT":0}]
